[
    {
        "Altitude(m)": 571642.7644906237,
        "Argument of Periapsis(deg)": 0.026491964442854003,
        "Eccentricity": 0.0,
        "Inclination(deg)": 53.0,
        "Latitude(deg)": -52.62892035849337,
        "Longitude(deg)": 52.92760819136159,
        "Mean Anomaly(deg)": -83.26992852968965,
        "RAAN(deg)": 234.96057347411207,
        "Satellite Name": "Starlink Shell 1 1048",
        "Satellite Number": 1048,
        "Semi-Major Axis(m)": 6931778.249405717,
        "Time(s)": 760
    },
    {
        "Altitude(m)": 571603.7771001369,
        "Argument of Periapsis(deg)": 0.02684054292236524,
        "Eccentricity": 0.0,
        "Inclination(deg)": 53.0,
        "Latitude(deg)": -52.52841848536489,
        "Longitude(deg)": 53.898169951114475,
        "Mean Anomaly(deg)": -82.64309732613289,
        "RAAN(deg)": 234.96005470403458,
        "Satellite Name": "Starlink Shell 1 1048",
        "Satellite Number": 1048,
        "Semi-Major Axis(m)": 6931778.249405717,
        "Time(s)": 770
    },
    {
        "Altitude(m)": 571561.4045187756,
        "Argument of Periapsis(deg)": 0.027189121401876473,
        "Eccentricity": 0.0,
        "Inclination(deg)": 53.0,
        "Latitude(deg)": -52.41930918184414,
        "Longitude(deg)": 54.86393451597733,
        "Mean Anomaly(deg)": -82.01626612257627,
        "RAAN(deg)": 234.9595359339571,
        "Satellite Name": "Starlink Shell 1 1048",
        "Satellite Number": 1048,
        "Semi-Major Axis(m)": 6931778.249405717,
        "Time(s)": 780
    },
    {
        "Altitude(m)": 571515.663626673,
        "Argument of Periapsis(deg)": 0.02753769988138771,
        "Eccentricity": 0.0,
        "Inclination(deg)": 53.0,
        "Latitude(deg)": -52.30166778703693,
        "Longitude(deg)": 55.82455595089043,
        "Mean Anomaly(deg)": -81.38943491901951,
        "RAAN(deg)": 234.95901716387962,
        "Satellite Name": "Starlink Shell 1 1048",
        "Satellite Number": 1048,
        "Semi-Major Axis(m)": 6931778.249405717,
        "Time(s)": 790
    },
    {
        "Altitude(m)": 571466.5726449005,
        "Argument of Periapsis(deg)": 0.02788627836089895,
        "Eccentricity": 0.0,
        "Inclination(deg)": 53.0,
        "Latitude(deg)": -52.17557456467816,
        "Longitude(deg)": 56.77970149470906,
        "Mean Anomaly(deg)": -80.76260371546272,
        "RAAN(deg)": 234.95849839380216,
        "Satellite Name": "Starlink Shell 1 1048",
        "Satellite Number": 1048,
        "Semi-Major Axis(m)": 6931778.249405717,
        "Time(s)": 800
    },
    {
        "Altitude(m)": 571414.1511275622,
        "Argument of Periapsis(deg)": 0.02823485684041019,
        "Eccentricity": 0.0,
        "Inclination(deg)": 53.0,
        "Latitude(deg)": -52.04111444841381,
        "Longitude(deg)": 57.72905267428448,
        "Mean Anomaly(deg)": -80.13577251190607,
        "RAAN(deg)": 234.9579796237247,
        "Satellite Name": "Starlink Shell 1 1048",
        "Satellite Number": 1048,
        "Semi-Major Axis(m)": 6931778.249405717,
        "Time(s)": 810
    },
    {
        "Altitude(m)": 571358.4199533461,
        "Argument of Periapsis(deg)": 0.028583435319921423,
        "Eccentricity": 0.0,
        "Inclination(deg)": 53.0,
        "Latitude(deg)": -51.89837677841156,
        "Longitude(deg)": 58.67230633240255,
        "Mean Anomaly(deg)": -79.5089413083493,
        "RAAN(deg)": 234.9574608536472,
        "Satellite Name": "Starlink Shell 1 1048",
        "Satellite Number": 1048,
        "Semi-Major Axis(m)": 6931778.249405717,
        "Time(s)": 820
    },
    {
        "Altitude(m)": 571299.4013164819,
        "Argument of Periapsis(deg)": 0.028932013799432665,
        "Eccentricity": 0.0,
        "Inclination(deg)": 53.0,
        "Latitude(deg)": -51.74745503092115,
        "Longitude(deg)": 59.609174057769074,
        "Mean Anomaly(deg)": -78.88211010479264,
        "RAAN(deg)": 234.95694208356971,
        "Satellite Name": "Starlink Shell 1 1048",
        "Satellite Number": 1048,
        "Semi-Major Axis(m)": 6931778.249405717,
        "Time(s)": 830
    },
    {
        "Altitude(m)": 571237.1187171248,
        "Argument of Periapsis(deg)": 0.029280592278943897,
        "Eccentricity": 0.0,
        "Inclination(deg)": 53.0,
        "Latitude(deg)": -51.5884465425862,
        "Longitude(deg)": 60.53938304286176,
        "Mean Anomaly(deg)": -78.25527890123593,
        "RAAN(deg)": 234.9564233134923,
        "Satellite Name": "Starlink Shell 1 1048",
        "Satellite Number": 1048,
        "Semi-Major Axis(m)": 6931778.249405717,
        "Time(s)": 840
    },
    {
        "Altitude(m)": 571171.5969511712,
        "Argument of Periapsis(deg)": 0.029629170758455132,
        "Eccentricity": 0.0,
        "Inclination(deg)": 53.0,
        "Latitude(deg)": -51.421452231210615,
        "Longitude(deg)": 61.46267685821059,
        "Mean Anomaly(deg)": -77.62844769767925,
        "RAAN(deg)": 234.9559045434148,
        "Satellite Name": "Starlink Shell 1 1048",
        "Satellite Number": 1048,
        "Semi-Major Axis(m)": 6931778.249405717,
        "Time(s)": 850
    },
    {
        "Altitude(m)": 571102.8620995039,
        "Argument of Periapsis(deg)": 0.02997774923796637,
        "Eccentricity": 0.0,
        "Inclination(deg)": 53.0,
        "Latitude(deg)": -51.24657631463432,
        "Longitude(deg)": 62.37881446421263,
        "Mean Anomaly(deg)": -77.00161649412256,
        "RAAN(deg)": 234.9553857733373,
        "Satellite Name": "Starlink Shell 1 1048",
        "Satellite Number": 1048,
        "Semi-Major Axis(m)": 6931778.249405717,
        "Time(s)": 860
    },
    {
        "Altitude(m)": 571030.941516702,
        "Argument of Periapsis(deg)": 0.030326327717477602,
        "Eccentricity": 0.0,
        "Inclination(deg)": 53.0,
        "Latitude(deg)": -51.0639260292974,
        "Longitude(deg)": 63.287571665608134,
        "Mean Anomaly(deg)": -76.37478529056573,
        "RAAN(deg)": 234.95486700325984,
        "Satellite Name": "Starlink Shell 1 1048",
        "Satellite Number": 1048,
        "Semi-Major Axis(m)": 6931778.249405717,
        "Time(s)": 870
    },
    {
        "Altitude(m)": 570955.8638191624,
        "Argument of Periapsis(deg)": 0.030674906196988847,
        "Eccentricity": 0.0,
        "Inclination(deg)": 53.0,
        "Latitude(deg)": -50.87361135000083,
        "Longitude(deg)": 64.18873996899883,
        "Mean Anomaly(deg)": -75.74795408700906,
        "RAAN(deg)": 234.9543482331824,
        "Satellite Name": "Starlink Shell 1 1048",
        "Satellite Number": 1048,
        "Semi-Major Axis(m)": 6931778.249405717,
        "Time(s)": 880
    },
    {
        "Altitude(m)": 570877.6588726745,
        "Argument of Periapsis(deg)": 0.031023484676500086,
        "Eccentricity": 0.0,
        "Inclination(deg)": 53.0,
        "Latitude(deg)": -50.67574471226549,
        "Longitude(deg)": 65.08212704960303,
        "Mean Anomaly(deg)": -75.12112288345239,
        "RAAN(deg)": 234.9538294631049,
        "Satellite Name": "Starlink Shell 1 1048",
        "Satellite Number": 1048,
        "Semi-Major Axis(m)": 6931778.249405717,
        "Time(s)": 890
    },
    {
        "Altitude(m)": 570796.3577794736,
        "Argument of Periapsis(deg)": 0.03137206315601132,
        "Eccentricity": 0.0,
        "Inclination(deg)": 53.0,
        "Latitude(deg)": -50.47044073860052,
        "Longitude(deg)": 65.96755715046035,
        "Mean Anomaly(deg)": -74.49429167989557,
        "RAAN(deg)": 234.95331069302745,
        "Satellite Name": "Starlink Shell 1 1048",
        "Satellite Number": 1048,
        "Semi-Major Axis(m)": 6931778.249405717,
        "Time(s)": 900
    },
    {
        "Altitude(m)": 570711.9928647225,
        "Argument of Periapsis(deg)": 0.03172064163552255,
        "Eccentricity": 0.0,
        "Inclination(deg)": 53.0,
        "Latitude(deg)": -50.25781596988071,
        "Longitude(deg)": 66.84486990573357,
        "Mean Anomaly(deg)": -73.86746047633886,
        "RAAN(deg)": 234.95279192294996,
        "Satellite Name": "Starlink Shell 1 1048",
        "Satellite Number": 1048,
        "Semi-Major Axis(m)": 6931778.249405717,
        "Time(s)": 910
    },
    {
        "Altitude(m)": 570624.5976624683,
        "Argument of Periapsis(deg)": 0.0320692201150338,
        "Eccentricity": 0.0,
        "Inclination(deg)": 53.0,
        "Latitude(deg)": -50.03798860291561,
        "Longitude(deg)": 67.71392061862466,
        "Mean Anomaly(deg)": -73.2406292727822,
        "RAAN(deg)": 234.95227315287246,
        "Satellite Name": "Starlink Shell 1 1048",
        "Satellite Number": 1048,
        "Semi-Major Axis(m)": 6931778.249405717,
        "Time(s)": 920
    },
    {
        "Altitude(m)": 570534.2069010627,
        "Argument of Periapsis(deg)": 0.032417798594545036,
        "Eccentricity": 0.0,
        "Inclination(deg)": 53.0,
        "Latitude(deg)": -49.81107823518553,
        "Longitude(deg)": 68.57458048597644,
        "Mean Anomaly(deg)": -72.61379806922548,
        "RAAN(deg)": 234.95175438279503,
        "Satellite Name": "Starlink Shell 1 1048",
        "Satellite Number": 1048,
        "Semi-Major Axis(m)": 6931778.249405717,
        "Time(s)": 930
    },
    {
        "Altitude(m)": 570440.8564880758,
        "Argument of Periapsis(deg)": 0.03276637707405627,
        "Eccentricity": 0.0,
        "Inclination(deg)": 53.0,
        "Latitude(deg)": -49.57720561759957,
        "Longitude(deg)": 69.42673526175234,
        "Mean Anomaly(deg)": -71.9869668656687,
        "RAAN(deg)": 234.95123561271754,
        "Satellite Name": "Starlink Shell 1 1048",
        "Satellite Number": 1048,
        "Semi-Major Axis(m)": 6931778.249405717,
        "Time(s)": 940
    }
]